IRIDIUM 57              
1 25273U 98019B   25004.81446887  .00000760  00000+0  25662-3 0  9999
2 25273  86.3964 213.6435 0001917  88.3387 271.8029 14.35670933401348
IRIDIUM 63              
1 25286U 98021B   25004.68606643  .00001270  00000+0  42810-3 0  9990
2 25286  86.4015 150.6899 0002157  91.2552 268.8892 14.36298397400375
IRIDIUM 69              
1 25319U 98026A   25004.84986922  .00001911  00000+0  59306-3 0  9991
2 25319  86.4009 164.3860 0002437 153.6544 206.4780 14.40647775399543
IRIDIUM 71              
1 25320U 98026B   25004.88008864  .00001674  00000+0  51646-3 0  9992
2 25320  86.4006 159.0997 0000217 219.8968 140.2216 14.40883929400076
IRIDIUM 73              
1 25344U 98032C   25004.82013132  .00002163  00000+0  53843-3 0  9998
2 25344  86.4428 116.2079 0002175 112.3356 247.8080 14.51321705406866
IRIDIUM 82              
1 25467U 98051A   25004.94053271  .00036028  00000+0  13721-2 0  9993
2 25467  86.3724 189.2860 0103147 191.7678 168.1157 15.21645836399040
